satname,norad_id,inclination_deg,eccentricity,mean_motion_rev_per_day,perigee_km,apogee_km,l1,l2
STARLINK-1420,45695,53.0458,0.0004846,15.6731302,363.32623303397304,369.86322702671805,1 45695U 20035AQ  26151.69130773  .00060837  00000+0  55486-3 0  9994,2 45695  53.0458 337.1946 0004846 110.8462 249.3072 15.67313020332321
STARLINK-1422,45696,53.1568,0.0003096,15.34202746,461.1714778089172,465.4076891494078,1 45696U 20035AR  26150.93463448  .00041551  00000+0  12417-2 0  9997,2 45696  53.1568  26.7709 0003096 128.0217 232.1065 15.34202746331572
STARLINK-1351,45697,53.0438,0.0004231,15.65707296,368.3497055093403,374.060999007821,1 45697U 20035AS  26151.83238417  .00053773  00000+0  52428-3 0  9990,2 45697  53.0438 336.8409 0004231 125.4421 234.6989 15.65707296332342
STARLINK-1400,45700,53.0436,0.0002125,15.64460744,373.3551002792383,376.2250942955843,1 45700U 20035AV  26151.91668980  .00080303  00000+0  81750-3 0  9995,2 45700  53.0436 338.9311 0002125  66.1301   1.0231 15.64460744  5748
STARLINK-1403,45701,53.1567,0.0002332,15.33166962,464.7744058044009,467.96668412337203,1 45701U 20035AW  26151.00738279  .00048428  00000+0  14921-2 0  9992,2 45701  53.1567  13.9223 0002332 145.9053 214.2100 15.33166962331754
STARLINK-1407,45703,53.0279,0.0005307,15.72838969,347.216645718152,354.3587263799245,1 45703U 20035AY  26151.55018712  .00081532  00000+0  58821-3 0  9998,2 45703  53.0279 267.7591 0005307  11.5441 348.5698 15.72838969333285
STARLINK-1411,45706,53.0308,0.0007531,15.87805092,303.40225075056514,313.4735698804825,1 45706U 20035BB  26151.91668980  .00333547  00000+0  11691-2 0  9998,2 45706  53.0308 288.1083 0007531 317.3111 298.0800 15.87805092  5799
STARLINK-1423,45710,53.0441,0.000618,15.68281965,359.6498133610294,367.98286768991966,1 45710U 20035BF  26151.72628242  .00066770  00000+0  58433-3 0  9996,2 45710  53.0441 336.5114 0006180  80.7457 279.4257 15.68281965332325
STARLINK-1433,45711,53.0439,0.0006023,15.67884792,360.8934990618782,369.0162275203984,1 45711U 20035BG  26151.83728069  .00061324  00000+0  54623-3 0  9994,2 45711  53.0439 334.5435 0006023  86.9076 273.2629 15.67884792332363
STARLINK-1434,45712,53.0506,0.0002405,15.33716038,463.091163675439,466.3825860092393,1 45712U 20035BH  26151.70202968  .00054647  00000+0  16519-2 0  9997,2 45712  53.0506 353.3562 0002405  80.4143 279.7129 15.33716038332101
STARLINK-1465,45731,53.0429,0.0001606,15.6519808,371.58496485297746,373.75332378653366,1 45731U 20038B   26151.45986216  .00059594  00000+0  59211-3 0  9991,2 45731  53.0429 181.8983 0001606  67.0893 293.0291 15.65198080329271
STARLINK-1471,45735,53.0448,0.00032,15.53092184,405.53262212966547,409.8755604280841,1 45735U 20038F   26151.25030421  .00038060  00000+0  60223-3 0  9991,2 45735  53.0448 105.1637 0003200  96.6380 263.4993 15.53092184330347
STARLINK-1480,45741,53.0456,0.0006424,15.64575436,370.1222070515496,378.7979437740405,1 45741U 20038M   26151.30929900  .00074840  00000+0  75871-3 0  9994,2 45741  53.0456 176.2426 0006424   7.1868 352.9237 15.64575436329359
STARLINK-1500,45744,53.0328,0.0002045,15.38816078,448.21285123227153,451.00539939752525,1 45744U 20038Q   26151.32819463  .00033800  00000+0  87379-3 0  9998,2 45744  53.0328 163.8396 0002045 100.7313 259.3920 15.38816078329527
STARLINK-1504,45746,53.0214,0.0003839,15.58534825,389.2977389833004,394.4957709003447,1 45746U 20038S   26151.86793132  .00040403  00000+0  52264-3 0  9995,2 45746  53.0214  99.2127 0003839  84.4180 275.7269 15.58534825330461
STARLINK-1506,45747,53.0728,0.0002746,15.28192306,479.33266540991553,483.0998222114167,1 45747U 20038T   26151.50539336  .00007856  00000+0  29445-3 0  9991,2 45747  53.0728 178.6481 0002746 140.1021 220.0180 15.28192306329348
STARLINK-1464,45751,53.0449,0.0004419,15.53709225,402.9094811795021,408.9052195763652,1 45751U 20038X   26151.28044588  .00036952  00000+0  57201-3 0  9991,2 45751  53.0449 168.8648 0004419  17.2925 342.8234 15.53709225329452
STARLINK-1477,45754,53.0491,0.0001374,15.18539356,509.3077889040169,511.2007188205789,1 45754U 20038AA  26151.54090295  .00029749  00000+0  14324-2 0  9993,2 45754  53.0491 195.1452 0001374 341.5791  18.5153 15.18539356329105
STARLINK-1478,45755,53.044,0.0005038,15.67546059,362.52858471597756,369.32390284040866,1 45755U 20038AB  26151.42984279  .00073572  00000+0  66257-3 0  9991,2 45755  53.0440 153.6543 0005038  50.0321 310.1137 15.67546059329668
STARLINK-1493,45759,53.045,0.0007239,15.64086697,370.97746031667793,380.7559068497703,1 45759U 20038AF  26151.82023256  .00103449  00000+0  10630-2 0  9998,2 45759  53.0450 161.2461 0007239   7.1243 352.9872 15.64086697329594
STARLINK-1494,45760,53.0373,0.0002462,16.03194638,263.94251514910957,267.2138805125214,1 45760U 20038AG  26151.83974669  .00294358  49261-4  46960-3 0  9997,2 45760  53.0373  91.0361 0002462  96.8754 263.2557 16.03194638330588
STARLINK-1502,45764,53.0436,0.0006759,15.60387629,381.96429302414253,391.1087787099277,1 45764U 20038AL  26151.66667823  .00063731  00000+0  76228-3 0  9995,2 45764  53.0436 165.6180 0006759 342.4640  32.9825 15.60387629  5962
STARLINK-1470,45772,53.0411,0.0004328,15.34621168,459.0855300658095,465.00639243706974,1 45772U 20038AU  26151.35745922  .00052800  00000+0  15515-2 0  9993,2 45772  53.0411 148.5530 0004328  12.1690 347.9415 15.34621168329748
STARLINK-1482,45773,53.1563,0.0005241,15.37088524,451.14292745239527,458.30513238395633,1 45773U 20038AV  26151.44473509  .00061833  00000+0  16752-2 0  9993,2 45773  53.1563 164.6097 0005241   6.6146 353.4926 15.37088524329547
STARLINK-1496,45780,53.0443,0.0001291,15.65408102,371.19386790541375,372.9367701441861,1 45780U 20038BC  26151.91668980  .01223535  00000+0  10790-1 0  9997,2 45780  53.0443 135.2776 0001291  97.5829 218.3073 15.65408102  5730
STARLINK-1513,45786,53.1577,0.0001534,15.31698189,469.69477516853203,471.7960122869281,1 45786U 20038BJ  26151.33348527  .00000108  00000+0  15254-4 0  9992,2 45786  53.1577 166.7849 0001534 118.9632 241.1524 15.31698189329503
STARLINK-1522,46027,53.0619,0.0003229,15.12699436,525.7417431478088,530.2017081628373,1 46027U 20055A   26151.09895618  .00030587  00000+0  17365-2 0  9998,2 46027  53.0619 113.9818 0003229  31.0269 329.0913 15.12699436321349
STARLINK-1523,46028,53.1614,0.0001234,15.30280109,474.1302146892058,475.8215629501665,1 46028U 20055B   26151.86383697  .00015406  00000+0  52988-3 0  9997,2 46028  53.1614 100.3671 0001234 103.0286 257.0853 15.30280109321634
STARLINK-1526,46029,53.161,0.000121,15.30188328,474.4206603116245,476.0791799462959,1 46029U 20055C   26151.13913219  .00000224  00000+0  19703-4 0  9998,2 46029  53.1610 103.7427 0001210  96.5596 263.5543 15.30188328321516
STARLINK-1555,46032,53.161,0.0001378,15.30191518,474.295999854352,476.1847906644862,1 46032U 20055F   26151.18864089  .00003838  00000+0  14168-3 0  9990,2 46032  53.1610 103.4940 0001378 106.3821 253.7331 15.30191518321525
STARLINK-1556,46033,53.1589,0.0001484,15.30199604,474.19921418163176,476.23328942676744,1 46033U 20055G   26151.10649463  .00013139  00000+0  45495-3 0  9992,2 46033  53.1589 103.8971 0001484  77.8839 282.2328 15.30199604321480
STARLINK-1557,46034,53.1587,0.0001076,15.30185937,474.5196341232513,475.9944845248174,1 46034U 20055H   26151.17494525 -.00004610  00000+0 -14369-3 0  9999,2 46034  53.1587 103.5763 0001076 110.7869 249.3247 15.30185937321491
STARLINK-1558,46035,53.16,0.0001404,15.30187598,474.2898839763393,476.214315635566,1 46035U 20055J   26151.18232418  .00002264  00000+0  88592-4 0  9993,2 46035  53.1600 103.5382 0001404  89.5011 270.6151 15.30187598321522
STARLINK-1560,46036,53.1574,0.0001034,15.30189068,474.5390706160715,475.9563505742217,1 46036U 20055K   26151.10331455 -.00000038  00000+0  10827-4 0  9991,2 46036  53.1574 103.9150 0001034  77.1566 282.9550 15.30189068321519
STARLINK-1569,46039,53.1602,0.0001461,15.30175999,474.2854478084164,476.28801822320474,1 46039U 20055N   26150.85890864 -.00000445  00000+0 -28882-5 0  9993,2 46039  53.1602 105.0326 0001461  97.7259 262.3907 15.30175999321463
STARLINK-1582,46043,53.1609,0.0001387,15.31706329,469.77119224847047,471.6710654934186,1 46043U 20055S   26151.86275735  .00002958  00000+0  10702-3 0  9993,2 46043  53.1609  99.8504 0001387  93.9792 266.1368 15.31706329321629
STARLINK-1591,46045,53.1595,0.0001337,15.30193895,474.31700230066417,476.14959351832385,1 46045U 20055U   26151.87128537  .00006074  00000+0  21706-3 0  9992,2 46045  53.1595 100.3340 0001337 104.2251 255.8899 15.30193895321601
STARLINK-1524,46047,53.1608,9e-05,15.31695565,470.1368156423496,471.3696158811863,1 46047U 20055W   26150.98383398 -.00000096  00000+0  86698-5 0  9995,2 46047  53.1608  91.2400 0000900  55.9489 304.1597 15.31695565321675
STARLINK-1527,46048,53.1599,0.0001044,15.31699238,470.0272437134936,471.45728970438176,1 46048U 20055X   26150.97916964  .00001634  00000+0  64401-4 0  9991,2 46048  53.1599  91.2440 0001044  96.3933 263.7188 15.31699238321646
STARLINK-1540,46051,53.1614,0.0001115,15.31700447,469.9750131058363,471.5023123786277,1 46051U 20055AA  26151.09571869  .00003113  00000+0  11202-3 0  9994,2 46051  53.1614  90.9092 0001115  82.0668 278.0459 15.31700447321705
STARLINK-1541,46052,53.1591,0.0002608,15.81510373,324.42025776700575,327.91722364135603,1 46052U 20055AB  26151.91668980  .00092825  00000+0  45516-3 0  9990,2 46052  53.1591  73.4883 0002608 178.3294  73.5348 15.81510373  5971
STARLINK-1543,46053,53.1591,0.0001175,15.31709638,469.9065253286817,471.51600467095614,1 46053U 20055AC  26151.85073701  .00010298  00000+0  34306-3 0  9994,2 46053  53.1591  87.2009 0001175  96.5512 263.5623 15.31709638321817
STARLINK-1548,46054,53.161,0.0001378,15.31699648,469.7972691249961,471.6848199140659,1 46054U 20055AD  26151.14697470 -.00002504  00000+0 -68952-4 0  9990,2 46054  53.1610  90.5506 0001378  91.8393 268.2766 15.31699648321706
